NORAD_CAT_ID,OBJECT_NAME,OBJECT_TYPE,EPOCH,MEAN_MOTION,ECCENTRICITY,INCLINATION,RA_OF_ASC_NODE,ARG_OF_PERICENTER,MEAN_ANOMALY,BSTAR,MEAN_MOTION_DOT,MEAN_MOTION_DDOT,TLE_LINE0,TLE_LINE1,TLE_LINE2,SEMIMAJOR_AXIS,PERIOD,APOGEE,PERIGEE,DECAYED
54099.0,STARLINK-5198,PAYLOAD,2023-01-25 18:42:39,15.08836644,9.98e-05,53.2162,46.4349,89.9637,270.1469,-1.4338e-05,-5.16e-06,0.0,0 STARLINK-5198,1 54099U 22136BA  23025.77962778 -.00000516  00000-0 -14338-4 0  9993,2 54099  53.2162  46.4349 0000998  89.9637 270.1469 15.08836644 15051,6917.891,95.438,540.446,539.065,0.0
54099.0,STARLINK-5198,PAYLOAD,2023-01-26 07:25:44,15.0884389,0.0001177,53.2166,44.0556,89.2449,270.8678,2.8924e-05,1.73e-06,0.0,0 STARLINK-5198,1 54099U 22136BA  23026.30954350  .00000173  00000-0  28924-4 0  9993,2 54099  53.2166  44.0556 0001177  89.2449 270.8678 15.08843890 15132,6917.868,95.437,540.548,538.919,0.0
54099.0,STARLINK-5198,PAYLOAD,2023-01-27 00:54:59,15.08835279,0.0001077,53.2162,40.7845,89.3172,270.7944,7.3469e-05,8.82e-06,0.0,0 STARLINK-5198,1 54099U 22136BA  23027.03818605  .00000882  00000-0  73469-4 0  9997,2 54099  53.2162  40.7845 0001077  89.3172 270.7944 15.08835279 15716,6917.895,95.438,540.505,539.015,0.0
54099.0,STARLINK-5198,PAYLOAD,2023-01-27 07:16:31,15.08842924,0.0001094,53.216,39.5953,89.0094,271.1024,6.4156e-05,7.33e-06,0.0,0 STARLINK-5198,1 54099U 22136BA  23027.30314156  .00000733  00000-0  64156-4 0  9997,2 54099  53.2160  39.5953 0001094  89.0094 271.1024 15.08842924 15752,6917.871,95.437,540.493,538.98,0.0
54099.0,STARLINK-5198,PAYLOAD,2023-01-28 05:31:56,15.08829075,0.0001133,53.2191,35.4367,86.5904,273.5218,2.7094e-05,1.43e-06,0.0,0 STARLINK-5198,1 54099U 22136BA  23028.23051360  .00000143  00000-0  27094-4 0  9990,2 54099  53.2191  35.4367 0001133  86.5904 273.5218 15.08829075 15894,6917.914000000001,95.438,540.563,538.995,0.0
54099.0,STARLINK-5198,PAYLOAD,2023-01-28 07:07:19,15.0883756,0.0001022,53.2163,35.1348,100.5733,259.5374,-1.7942e-05,-5.73e-06,0.0,0 STARLINK-5198,1 54099U 22136BA  23028.29674890 -.00000573  00000-0 -17942-4 0  9995,2 54099  53.2163  35.1348 0001022 100.5733 259.5374 15.08837560 15438,6917.888,95.438,540.46,539.046,0.0
54099.0,STARLINK-5198,PAYLOAD,2023-01-29 06:58:05,15.08844307,9.52e-05,53.2175,30.6753,93.306,266.8041,2.092e-05,4.5e-07,0.0,0 STARLINK-5198,1 54099U 22136BA  23029.29034411  .00000045  00000-0  20920-4 0  9997,2 54099  53.2175  30.6753 0000952  93.3060 266.8041 15.08844307 16052,6917.867,95.437,540.391,539.074,0.0
54099.0,STARLINK-5198,PAYLOAD,2023-01-30 06:48:53,15.08834664,9.14e-05,53.2174,26.216,96.3213,263.7883,7.3624e-05,8.84e-06,0.0,0 STARLINK-5198,1 54099U 22136BA  23030.28394997  .00000884  00000-0  73624-4 0  9996,2 54099  53.2174  26.2160 0000914  96.3213 263.7883 15.08834664 16207,6917.897,95.438,540.394,539.129,0.0
54099.0,STARLINK-5198,PAYLOAD,2023-01-31 09:50:26,15.08845142,9.73e-05,53.2174,21.1606,101.4855,258.6246,5.1973e-05,5.4e-06,0.0,0 STARLINK-5198,1 54099U 22136BA  23031.41002494  .00000540  00000-0  51973-4 0  9992,2 54099  53.2174  21.1606 0000973 101.4855 258.6246 15.08845142 16378,6917.865,95.437,540.403,539.057,0.0
54099.0,STARLINK-5198,PAYLOAD,2023-02-01 08:05:49,15.088476,0.0001069,53.2172,16.9941,93.1257,266.9857,7.7731e-05,9.5e-06,0.0,0 STARLINK-5198,1 54099U 22136BA  23032.33738204  .00000950  00000-0  77731-4 0  9994,2 54099  53.2172  16.9941 0001069  93.1257 266.9857 15.08847600 16045,6917.857,95.437,540.462,538.983,0.0
54099.0,STARLINK-5198,PAYLOAD,2023-02-02 03:10:28,15.08837175,0.0001175,53.2177,13.4252,112.3309,247.7808,-3.2703e-05,-8.08e-06,0.0,0 STARLINK-5198,1 54099U 22136BA  23033.13227395 -.00000808  00000-0 -32703-4 0  9991,2 54099  53.2177  13.4252 0001175 112.3309 247.7808 15.08837175 16631,6917.889,95.438,540.567,538.941,0.0
54099.0,STARLINK-5198,PAYLOAD,2023-02-02 07:56:37,15.0883945,0.0001208,53.2175,12.5342,94.4627,265.6503,-1.447e-05,-5.18e-06,0.0,0 STARLINK-5198,1 54099U 22136BA  23033.33099286 -.00000518  00000-0 -14470-4 0  9998,2 54099  53.2175  12.5342 0001208  94.4627 265.6503 15.08839450 16199,6917.882,95.438,540.583,538.911,0.0
54099.0,STARLINK-5198,PAYLOAD,2023-02-02 22:15:05,15.0884228,0.0001214,53.2178,9.8581,112.7339,247.3781,3.8518e-05,3.25e-06,0.0,0 STARLINK-5198,1 54099U 22136BA  23033.92714772  .00000325  00000-0  38518-4 0  9990,2 54099  53.2178   9.8581 0001214 112.7339 247.3781 15.08842280 16759,6917.873,95.437,540.578,538.899,0.0
54099.0,STARLINK-5198,PAYLOAD,2023-02-03 07:47:23,15.08852034,0.0001196,53.2174,8.074,97.6562,262.4566,8.4573e-05,1.059e-05,0.0,0 STARLINK-5198,1 54099U 22136BA  23034.32457856  .00001059  00000-0  84573-4 0  9999,2 54099  53.2174   8.0740 0001196  97.6562 262.4566 15.08852034 16815,6917.844,95.437,540.536,538.881,0.0
54099.0,STARLINK-5198,PAYLOAD,2023-02-04 07:38:11,15.08843518,0.000119,53.2181,3.6132,95.8303,264.2825,3.5786e-05,2.82e-06,0.0,0 STARLINK-5198,1 54099U 22136BA  23035.31818536  .00000282  00000-0  35786-4 0  9994,2 54099  53.2181   3.6132 0001190  95.8303 264.2825 15.08843518 16967,6917.87,95.437,540.558,538.911,0.0
54099.0,STARLINK-5198,PAYLOAD,2023-02-04 21:56:40,15.08838137,0.0001194,53.2178,0.937,94.402,265.7109,-0.00012988,-2.354e-05,0.0,0 STARLINK-5198,1 54099U 22136BA  23035.91435634 -.00002354  00000-0 -12988-3 0  9996,2 54099  53.2178   0.9370 0001194  94.4020 265.7109 15.08838137 17055,6917.886,95.438,540.577,538.925,0.0
54099.0,STARLINK-5198,PAYLOAD,2023-02-05 07:28:59,15.08840133,0.0001216,53.2186,359.1535,86.0283,274.0848,-0.00010519,-1.962e-05,0.0,0 STARLINK-5198,1 54099U 22136BA  23036.31179496 -.00001962  00000-0 -10519-3 0  9994,2 54099  53.2186 359.1535 0001216  86.0283 274.0848 15.08840133 16645,6917.88,95.438,540.586,538.904,0.0
54099.0,STARLINK-5198,PAYLOAD,2023-02-06 05:44:22,15.08846692,0.0001218,53.2191,354.9906,89.8388,270.2743,7.4523e-05,8.99e-06,0.0,0 STARLINK-5198,1 54099U 22136BA  23037.23914667  .00000899  00000-0  74523-4 0  9995,2 54099  53.2191 354.9906 0001218  89.8388 270.2743 15.08846692 17251,6917.86,95.437,540.568,538.882,0.0
54099.0,STARLINK-5198,PAYLOAD,2023-02-06 07:19:45,15.08848158,0.0001244,53.219,354.6929,90.9417,269.1718,9.0849e-05,1.159e-05,0.0,0 STARLINK-5198,1 54099U 22136BA  23037.30538505  .00001159  00000-0  90849-4 0  9995,2 54099  53.2190 354.6929 0001244  90.9417 269.1718 15.08848158 16793,6917.855,95.437,540.581,538.86,0.0
54099.0,STARLINK-5198,PAYLOAD,2023-02-06 21:38:14,15.08836231,0.0001121,53.219,352.0163,94.403,265.7091,6.4544e-05,7.39e-06,0.0,0 STARLINK-5198,1 54099U 22136BA  23037.90155402  .00000739  00000-0  64544-4 0  9998,2 54099  53.2190 352.0163 0001121  94.4030 265.7091 15.08836231 17357,6917.892,95.438,540.532,538.981,0.0
54099.0,STARLINK-5198,PAYLOAD,2023-02-07 05:35:08,15.08854227,0.0001096,53.2184,350.5305,94.1694,265.9424,0.00021133,3.078e-05,0.0,0 STARLINK-5198,1 54099U 22136BA  23038.23273762  .00003078  00000-0  21133-3 0  9990,2 54099  53.2184 350.5305 0001096  94.1694 265.9424 15.08854227 17408,6917.837,95.437,540.46,538.944,0.0
54099.0,STARLINK-5198,PAYLOAD,2023-02-07 21:29:01,15.08845115,0.0001154,53.2191,347.5568,91.2387,268.8737,-8.2216e-05,-1.596e-05,0.0,0 STARLINK-5198,1 54099U 22136BA  23038.89515356 -.00001596  00000-0 -82216-4 0  9995,2 54099  53.2191 347.5568 0001154  91.2387 268.8737 15.08845115 17501,6917.865,95.437,540.528,538.931,0.0
54099.0,STARLINK-5198,PAYLOAD,2023-02-08 05:25:56,15.08849772,0.0001207,53.2185,346.0684,88.5079,271.6051,-1.2195e-06,-3.07e-06,0.0,0 STARLINK-5198,1 54099U 22136BA  23039.22634696 -.00000307  00000-0 -12195-5 0  9991,2 54099  53.2185 346.0684 0001207  88.5079 271.6051 15.08849772 17552,6917.851,95.437,540.551,538.881,0.0
54099.0,STARLINK-5198,PAYLOAD,2023-02-09 05:16:43,15.08857968,0.000128,53.2185,341.6101,90.8418,269.2721,2.083e-05,4.4e-07,0.0,0 STARLINK-5198,1 54099U 22136BA  23040.21994434  .00000044  00000-0  20830-4 0  9991,2 54099  53.2185 341.6101 0001280  90.8418 269.2721 15.08857968 17239,6917.825,95.436,540.576,538.805,0.0
54099.0,STARLINK-5198,PAYLOAD,2023-02-10 01:56:44,15.08838945,0.0001359,53.2182,337.743,85.7489,274.3659,5.9159e-05,6.54e-06,0.0,0 STARLINK-5198,1 54099U 22136BA  23041.08107453  .00000654  00000-0  59159-4 0  9997,2 54099  53.2182 337.7430 0001359  85.7489 274.3659 15.08838945 17360,6917.884,95.438,540.689,538.808,0.0
54099.0,STARLINK-5198,PAYLOAD,2023-02-10 05:07:29,15.08860115,0.0001412,53.2189,337.1482,99.2311,260.8841,0.00022867,3.355e-05,0.0,0 STARLINK-5198,1 54099U 22136BA  23041.21353934  .00003355  00000-0  22867-3 0  9995,2 54099  53.2189 337.1482 0001412  99.2311 260.8841 15.08860115 17853,6917.819,95.436,540.661,538.707,0.0
54099.0,STARLINK-5198,PAYLOAD,2023-02-11 04:58:16,15.08866158,0.0001551,53.2186,332.6884,85.543,274.5739,0.00014612,2.04e-05,0.0,0 STARLINK-5198,1 54099U 22136BA  23042.20713605  .00002040  00000-0  14612-3 0  9999,2 54099  53.2186 332.6884 0001551  85.5430 274.5739 15.08866158 18009,6917.8,95.436,540.738,538.592,0.0
54099.0,STARLINK-5198,PAYLOAD,2023-02-11 19:16:46,15.08847744,0.0001433,53.2178,330.0125,91.5297,268.5859,-0.00014896,-2.658e-05,0.0,0 STARLINK-5198,1 54099U 22136BA  23042.80331629 -.00002658  00000-0 -14896-3 0  9998,2 54099  53.2178 330.0125 0001433  91.5297 268.5859 15.08847744 18092,6917.857,95.437,540.713,538.73,0.0
54099.0,STARLINK-5198,PAYLOAD,2023-02-12 04:49:03,15.08868906,9.73e-05,53.2183,328.2276,114.6583,245.4511,4.2721e-05,3.93e-06,0.0,0 STARLINK-5198,1 54099U 22136BA  23043.20073154  .00000393  00000-0  42721-4 0  9990,2 54099  53.2183 328.2276 0000973 114.6583 245.4511 15.08868906 18156,6917.792,95.436,540.33,538.984,0.0
54099.0,STARLINK-5198,PAYLOAD,2023-02-13 04:39:52,15.08845297,0.0001346,53.2188,323.7693,67.9724,292.1411,-0.00012038,-2.204e-05,0.0,0 STARLINK-5198,1 54099U 22136BA  23044.19436071 -.00002204  00000-0 -12038-3 0  9992,2 54099  53.2188 323.7693 0001346  67.9724 292.1411 15.08845297 18309,6917.864,95.437,540.66,538.798,0.0
